#dP2019  3 16  0  0  0.00000000      96 __u+U ITR00 FIT  IAC
## 2044 518400.00000000   900.00000000 58558 0.0000000000000
+   99   C01C02C03C04C05C06C07C08C09C10C11C12C13C14C16C20C32
+        E01E02E03E04E05E07E08E09E11E12E13E14E15E18E19E21E24
+        E25E26E27E30E31E33E36G01G02G03G04G05G06G07G08G09G10
+        G11G12G13G14G15G17G18G19G20G21G22G23G24G25G26G27G28
+        G29G30G31G32J01J02J03J07R01R02R03R04R05R07R08R09R10
+        R11R13R14R15R16R17R18R19R20R21R22R23R24R26  0  0  0
++        11 11 12 12 12  8  8  8  8  8  8  8  8  7  8  0  0
++         5  5  5  5  5  5  4  5  5  5  5  5  5  5  5  5  5
++         4  4  5  5  5  4  5  3  3  3  4  3  3  3  3  3  3
++         3  3  3  3  3  3  3  3  3  3  3  3  3  3  3  3  3
++         3  3  3  3 10 10  9 15  5  5  5  5  5  5  5  5  5
++         5  6  6  5  5  5  5  7  5  5  5  5  5  8  0  0  0
%c M  cc GPS ccc cccc cccc cccc cccc ccccc ccccc ccccc ccccc
%c cc cc ccc ccc cccc cccc cccc cccc ccccc ccccc ccccc ccccc
%f  0.0000000  0.000000000  0.00000000000  0.000000000000000
%f  0.0000000  0.000000000  0.00000000000  0.000000000000000
%i    0    0    0    0      0      0      0      0         0
%i    0    0    0    0      0      0      0      0         0
/* INFORMATION & ANALYSIS CENTER (IAC) OF MCC   (RAPID DATA)
/* S/V CLOCKS ARE ALIGNED TO GPS & GLONASS TIME RESPECTIVELY
/* USING THE BROADCAST EPHEMERIS                            
/* PCV:IGS14_2038 OL/AL:FES2004  NONE     YN ORB:CoN CLK:CoN
*  2019 03 16  0 45  0.00000000
PC01 -32317.231484  27077.143218   -922.780602    335.817706
PC02   4482.304071  41901.951568    -96.613953   -379.592419
PC03 -14743.140465  39506.765916   -568.433700    -51.177944
PC04 -39627.684290  14392.602026   -676.805780     14.866878
PC05  21938.120566  36019.740409    152.148067   -123.840107
PC06 -18329.954826  21732.851352  31334.416965    537.144266
PC07 -19625.441912  37549.736536  -1623.550577     95.472556
PC08  -5900.777119  28319.556174 -30472.577535    129.621567
PC09  -2260.221109  24487.331225  34450.214581    608.595185
PC10 -10243.044906  39030.848519 -12747.650524   -577.451319
PC11  25417.518391   6740.844125   9320.270420    -52.815755
PC12  12623.441833  18771.698609 -16222.054365    495.505322
PC13   4751.100664  36449.901879 -20385.088757   -595.617735
PC14  18682.771317   4868.187967  20229.693472    759.786822
PC16 -14677.656154  22279.701000  32618.396677   -373.914266
PC20      0.000000      0.000000      0.000000 999999.999999
PC32      0.000000      0.000000      0.000000 999999.999999
PE01 -16917.018009   -265.883003  24282.566753   -562.949349
PE02  16939.199150    200.860235 -24281.022802     51.651485
PE03  28513.983020    715.277490   7892.410464   -144.321087
PE04 -25010.394280  11894.426219  10451.785616   -241.161950
PE05  15333.859213  12991.158536  21734.196481     90.988052
PE07   6756.482311 -17612.619613 -22801.195471   -149.901307
PE08  24866.240923 -12079.361225 -10561.509928   6388.279974
PE09  -6635.120036  17542.709502  22909.104025   6499.061173
PE11   3093.769829  22768.221717 -18669.878856   5715.436664
PE12 -14204.135080   8546.231923 -24510.155520   6381.372548
PE13  -3058.092299 -22622.652154  18848.535135    384.262814
PE14  14858.139812  -9797.975490  16006.333315   6430.779164
PE15  13887.196133  -8860.697407  24607.173652    917.047143
PE18 -11412.330226  17782.648558 -24496.145807   -592.404715
PE19 -27895.998345  -1953.588382  -9693.120558     -7.718738
PE21  -6782.723767 -20479.938552  20259.850994   -524.264583
PE24  -7102.887862  28332.098180  -4741.539130   6183.372412
PE25   6756.323243  20514.898299 -20240.219544   1864.325364
PE26 -18040.121704 -23375.655207   2068.159442   4794.087766
PE27   7273.994335 -28375.231257   4276.930682    509.759726
PE30  17085.055079 -19818.420189 -13865.284754   5029.813165
PE31 -17039.620502  19609.437720  14189.759419    882.136758
PE33 -22751.098217 -10133.492311 -15973.109691    847.948116
PE36  18300.272953  23185.716836  -1998.508316    736.045385
PG01  15590.266808    707.445595  21364.466939   -181.589313
PG02 -14387.250776 -21062.110006  -7105.409664   -164.498098
PG03  20537.097322  -8431.389044  14485.372042    186.493712
PG04  11876.218005 -12056.776495 -20461.434036    134.164441
PG05 -11570.523530 -10349.113994 -21665.117164      1.178285
PG06  -6894.801931 -25462.383501   2981.098920    254.239867
PG07   9816.301021 -14407.053585 -19651.799080     14.174893
PG08  25960.260765   5803.585067  -1887.047018   -136.307979
PG09  17289.387190  -9771.478197 -17686.793820    444.593425
PG10  -8377.248081  22283.816051  11629.195071     96.331402
PG11  20580.310415   3305.006576  15799.209250   -644.338102
PG12 -20447.688841   6150.527799  15468.221473    259.804955
PG13 -21658.849746 -12963.039165  -8442.232696    -71.561500
PG14   8762.802121  16376.901280  19363.525116    -88.199995
PG15 -26626.678221  -2807.630581   -433.604906   -323.349478
PG17   1314.344829 -14953.185943  22325.849127     24.018562
PG18  17206.193013  10867.333282  16659.406430     35.180611
PG19  -8186.611645 -15855.143630  19345.369384   -341.859158
PG20 -13776.762155  22560.213964   1498.859579    523.130211
PG21  -5551.097030  18793.397962 -17184.396986   -231.738159
PG22  18623.566303   -993.366048  19126.226517   -664.994028
PG23  25122.871136  -2136.325762  -8657.593019   -193.887950
PG24 -17324.231862  -4554.213388  19554.135526    -63.437658
PG25 -19665.586025  16536.797743   5962.336834   -733.572747
PG26   3388.185017  17720.492785 -19448.867265    150.236452
PG27  20775.432441  11942.828621 -11866.588408    -87.008784
PG28  10932.662082 -21554.743847  11726.553524    766.349932
PG29 -21543.676305   4669.761344 -14835.586697    248.458155
PG30   2355.419486 -23291.822098 -12357.293967    -69.156442
PG31   6946.991234  25333.247026   1567.624872     51.897540
PG32   2507.970293  15713.600060  21328.422964   -179.264544
PJ01 -27003.503016  32022.427544   9845.768406   -345.697025
PJ02 -27411.298230  26046.475752  23310.048615      0.294681
PJ03 -29962.489344  16703.979025 -19877.442361     -0.297301
PJ07 -25383.451721  33660.415461     45.325019     67.369995
PR01  10485.635776   7193.340480  22112.172067     40.884306
PR02  23515.585423  -4901.796416   8697.146345    358.959559
PR03  20313.420613 -12662.149821  -8837.643485     -7.630895
PR04   4750.955278 -12916.828844 -21463.620816    298.737685
PR05 -12486.971281  -5834.693122 -21448.371289     24.132021
PR07 -19946.693592  12793.537698   9426.763842    -59.938641
PR08  -5480.343980  13082.906954  21250.643204     18.627959
PR09 -11594.115566   3911.951198  22399.381709     59.298164
PR10  -9581.286782  19047.982882  14034.481688     45.089188
PR11  -1955.414377  25191.228199  -3645.508145    -59.816030
PR13  11183.485941  -2351.854341 -22827.842828    -21.265402
PR14   9562.821363 -19083.157427 -13954.661649     36.944533
PR15   2410.694698 -25243.017142   2819.704596    100.649064
PR16  -6519.817630 -16910.665002  17978.807602     10.747471
PR17  10040.639923  -5413.099781  22826.376093    212.399586
PR18  -5257.159259 -15528.377061  19536.732012     36.604702
PR19 -17429.352910 -17760.716744   5600.982452     48.493989
PR20 -19879.650693  -8808.913109 -13279.130365   -371.881448
PR21  -9540.897426   5754.270554 -22941.284462    -36.764881
PR22   7653.737625  16517.788284 -17921.711555     -9.600128
PR23  19763.992856  16126.651853   -505.205058    215.565902
PR24  19623.567103   7315.436113  14560.116871   -178.249363
PR26 -20617.090243 -10001.444004 -11210.280271      1.477136
EOF
